CORVUS BC4              
1 43767U 18099K   26187.90236829  .00002754  00000+0  16106-3 0  9991
2 43767  97.4056 230.3060 0006516 297.4006  62.6562 15.12659580415380
M2 PATHFINDER           
1 45727U 20037E   26187.99664117  .00002038  00000+0  14885-3 0  9995
2 45727  97.8158  19.4516 0013247  87.2901 272.9841 15.04771808328473
NETSAT-4                
1 46504U 20068U   26187.95385057  .00013695  00000+0  29679-3 0  9990
2 46504  97.8607 197.7918 0003786 228.6166 131.4756 15.44556008318822
NETSAT-3                
1 46505U 20068V   26187.00259304  .00020739  00000+0  46612-3 0  9995
2 46505  97.8655 194.9565 0002975 257.5330 102.5584 15.43375304318584
NETSAT-1                
1 46506U 20068W   26187.95441972  .00009557  00000+0  28299-3 0  9990
2 46506  97.8754 190.0795 0002653 313.6143  46.4879 15.35114791318334
NETSAT-2                
1 46507U 20068X   26187.96538583  .00017837  00000+0  35616-3 0  9998
2 46507  97.8621 197.7735 0001393 261.1287  98.9803 15.46901904318793
GREENCUBE (IO-117)      
1 53109U 22080E   26187.32757832 -.00000003  00000+0  00000+0 0  9993
2 53109  70.1428 291.5893 0008965 285.5832  74.3838  6.42583225 93293
SITRO-AIS 5 (KATYS)     
1 57176U 23091L   26188.15243190  .00009040  00000+0  31390-3 0  9992
2 57176  97.5046 252.2466 0011515  39.9737 320.2349 15.29940382167399
SITRO-AIS 6 (CHIRKIN)   
1 57192U 23091AC  26188.11235896  .00007846  00000+0  30430-3 0  9996
2 57192  97.5053 251.2183 0012005  43.7593 316.4595 15.26335279167321
SITRO-AIS 8 (ANOKHIN)   
1 57193U 23091AD  26188.19932119  .00010881  00000+0  34631-3 0  9997
2 57193  97.5043 253.9653 0010345  35.9517 324.2418 15.32711925167511
SITRO-AIS 7 (FARTUSHNIY)
1 57194U 23091AE  26188.11963742  .00007946  00000+0  31113-3 0  9996
2 57194  97.5050 251.0402 0011940  44.8521 315.3680 15.26013248167313
SITRO-AIS 10 (BURDAEV)  
1 57199U 23091AK  26188.14536963  .00015865  00000+0  40703-3 0  9999
2 57199  97.5067 259.1741 0005639  13.8654 346.2745 15.39411003167839
SITRO-AIS 9 (SHCHUKIN)  
1 57201U 23091AM  26188.17823323  .00014250  00000+0  37198-3 0  9996
2 57201  97.5065 258.9218 0005907  13.7194 346.4211 15.38902680167827
SITRO-AIS 12 (SMIRENNIY)
1 57204U 23091AQ  26188.16504992  .00014299  00000+0  36976-3 0  9992
2 57204  97.5079 259.3881 0005429   7.4887 352.6438 15.39195144167846
SITRO-AIS 11 (SHEFFER)  
1 57208U 23091AU  26188.17287123  .00015110  00000+0  38498-3 0  9995
2 57208  97.5077 259.6554 0005348   7.1700 352.9621 15.39635879167862
SITRO-AIS 25            
1 59066U 24039R   26188.20734872  .00001790  00000+0  14180-3 0  9995
2 59066  95.3897 248.8503 0142333 257.8236 100.7016 14.93615249127715
SITRO-AIS 26            
1 59067U 24039S   26188.21147095  .00001544  00000+0  12329-3 0  9992
2 59067  95.3897 248.7467 0142697 258.4232 100.0946 14.93407016127705
SITRO-AIS 27            
1 59068U 24039T   26188.17609031  .00002551  00000+0  19996-3 0  9997
2 59068  95.3897 249.0033 0141744 257.0632 101.4732 14.93828915127725
SITRO-AIS 28            
1 59071U 24039U   26188.22006354  .00001722  00000+0  13588-3 0  9996
2 59071  95.3899 249.0821 0141694 256.7721 101.7666 14.93862886127730
GRBBETA                 
1 60237U 24128C   26187.33338567  .00003982  00000+0  27635-3 0  9994
2 60237  61.9891 149.0849 0038191 138.6902 221.7091 15.06767391109153
OOV-CUBE (TUBSAT-30)    
1 60240U 24128F   26187.41788602  .00002062  00000+0  16592-3 0  9994
2 60240  61.9939 158.5121 0042205 138.0070 222.4270 15.02848993109004
ROBUSTA-3A (MEDITERRAN*)
1 60243U 24128J   26187.44861367  .00005961  00000+0  35298-3 0  9995
2 60243  61.9857 140.1176 0039043 131.8917 228.5520 15.11900302109334
LASARSAT                
1 62391U 24247Q   26187.99432603  .00026958  00000+0  51550-3 0  9998
2 62391  44.9727 150.8099 0006511 106.6985 253.4620 15.47634436 86386
CROCUBE                 
1 62394U 24247T   26186.35536948  .00062671  00000+0  11046-2 0  9994
2 62394  44.9708 157.0633 0006223  99.0627 261.0968 15.49608608 86169
FORESAIL-1 PRIME        
1 66778U 25276DS  26188.15706049  .00003876  00000+0  18904-3 0  9991
2 66778  97.4188 261.0640 0003440  61.9701 298.1881 15.18890815 33433
KNACKSAT-2              
1 67683U 98067XZ  26187.43025761  .00050889  00000+0  57855-3 0  9994
2 67683  51.6265 197.5608 0008259 296.8985  63.1164 15.61755488 23280
