OBJECT_NAME,OBJECT_ID,EPOCH,MEAN_MOTION,ECCENTRICITY,INCLINATION,RA_OF_ASC_NODE,ARG_OF_PERICENTER,MEAN_ANOMALY,EPHEMERIS_TYPE,CLASSIFICATION_TYPE,NORAD_CAT_ID,ELEMENT_SET_NO,REV_AT_EPOCH,BSTAR,MEAN_MOTION_DOT,MEAN_MOTION_DDOT
CORVUS BC4,2018-099K,2026-07-06T21:39:24.620256,15.12659580,.0006516,97.4056,230.3060,297.4006,62.6562,0,U,43767,999,41538,.16106E-3,.2754E-4,0
M2 PATHFINDER,2020-037E,2026-07-06T23:55:09.797088,15.04771808,.0013247,97.8158,19.4516,87.2901,272.9841,0,U,45727,999,32847,.14885E-3,.2038E-4,0
NETSAT-4,2020-068U,2026-07-06T22:53:32.689248,15.44556008,.0003786,97.8607,197.7918,228.6166,131.4756,0,U,46504,999,31882,.29679E-3,.13695E-3,0
NETSAT-3,2020-068V,2026-07-06T00:03:44.038656,15.43375304,.0002975,97.8655,194.9565,257.5330,102.5584,0,U,46505,999,31858,.46612E-3,.20739E-3,0
NETSAT-1,2020-068W,2026-07-06T22:54:21.863808,15.35114791,.0002653,97.8754,190.0795,313.6143,46.4879,0,U,46506,999,31833,.28299E-3,.9557E-4,0
NETSAT-2,2020-068X,2026-07-06T23:10:09.335712,15.46901904,.0001393,97.8621,197.7735,261.1287,98.9803,0,U,46507,999,31879,.35616E-3,.17837E-3,0
GREENCUBE (IO-117),2022-080E,2026-07-06T07:51:42.766848,6.42583225,.0008965,70.1428,291.5893,285.5832,74.3838,0,U,53109,999,9329,0,-.3E-7,0
SITRO-AIS 5 (KATYS),2023-091L,2026-07-07T03:39:30.116160,15.29940382,.0011515,97.5046,252.2466,39.9737,320.2349,0,U,57176,999,16739,.3139E-3,.904E-4,0
SITRO-AIS 6 (CHIRKIN),2023-091AC,2026-07-07T02:41:47.814144,15.26335279,.0012005,97.5053,251.2183,43.7593,316.4595,0,U,57192,999,16732,.3043E-3,.7846E-4,0
SITRO-AIS 8 (ANOKHIN),2023-091AD,2026-07-07T04:47:01.350816,15.32711925,.0010345,97.5043,253.9653,35.9517,324.2418,0,U,57193,999,16751,.34631E-3,.10881E-3,0
SITRO-AIS 7 (FARTUSHNIY),2023-091AE,2026-07-07T02:52:16.673088,15.26013248,.001194,97.5050,251.0402,44.8521,315.3680,0,U,57194,999,16731,.31113E-3,.7946E-4,0
SITRO-AIS 10 (BURDAEV),2023-091AK,2026-07-07T03:29:19.936032,15.39411003,.0005639,97.5067,259.1741,13.8654,346.2745,0,U,57199,999,16783,.40703E-3,.15865E-3,0
SITRO-AIS 9 (SHCHUKIN),2023-091AM,2026-07-07T04:16:39.351072,15.38902680,.0005907,97.5065,258.9218,13.7194,346.4211,0,U,57201,999,16782,.37198E-3,.1425E-3,0
SITRO-AIS 12 (SMIRENNIY),2023-091AQ,2026-07-07T03:57:40.313088,15.39195144,.0005429,97.5079,259.3881,7.4887,352.6438,0,U,57204,999,16784,.36976E-3,.14299E-3,0
SITRO-AIS 11 (SHEFFER),2023-091AU,2026-07-07T04:08:56.074272,15.39635879,.0005348,97.5077,259.6554,7.1700,352.9621,0,U,57208,999,16786,.38498E-3,.1511E-3,0
SITRO-AIS 25,2024-039R,2026-07-07T04:58:34.929408,14.93615249,.0142333,95.3897,248.8503,257.8236,100.7016,0,U,59066,999,12771,.1418E-3,.179E-4,0
SITRO-AIS 26,2024-039S,2026-07-07T05:04:31.090080,14.93407016,.0142697,95.3897,248.7467,258.4232,100.0946,0,U,59067,999,12770,.12329E-3,.1544E-4,0
SITRO-AIS 27,2024-039T,2026-07-07T04:13:34.202784,14.93828915,.0141744,95.3897,249.0033,257.0632,101.4732,0,U,59068,999,12772,.19996E-3,.2551E-4,0
SITRO-AIS 28,2024-039U,2026-07-07T05:16:53.489856,14.93862886,.0141694,95.3899,249.0821,256.7721,101.7666,0,U,59071,999,12773,.13588E-3,.1722E-4,0
GRBBETA,2024-128C,2026-07-06T08:00:04.521888,15.06767391,.00381911,61.9891,149.0849,138.6902,221.7091,0,U,60237,999,10915,.27634718E-3,.3982E-4,0
OOV-CUBE (TUBSAT-30),2024-128F,2026-07-06T10:01:45.352128,15.02848993,.0042205,61.9939,158.5121,138.0070,222.4270,0,U,60240,999,10900,.16592E-3,.2062E-4,0
ROBUSTA-3A (MEDITERRANEE),2024-128J,2026-07-06T10:46:00.221088,15.11900302,.0039043,61.9857,140.1176,131.8917,228.5520,0,U,60243,999,10933,.35298E-3,.5961E-4,0
LASARSAT,2024-247Q,2026-07-06T23:51:49.768992,15.47634436,.0006511,44.9727,150.8099,106.6985,253.4620,0,U,62391,999,8638,.5155E-3,.26958E-3,0
CROCUBE,2024-247T,2026-07-05T08:31:43.923072,15.49608608,.0006223,44.9708,157.0633,99.0627,261.0968,0,U,62394,999,8616,.11046E-2,.62671E-3,0
FORESAIL-1 PRIME,2025-276DS,2026-07-07T03:46:10.026336,15.18890815,.000344,97.4188,261.0640,61.9701,298.1881,0,U,66778,999,3343,.18904E-3,.3876E-4,0
KNACKSAT-2,1998-067XZ,2026-07-06T10:19:34.257504,15.61755488,.00082597,51.6265,197.5608,296.8985,63.1164,0,U,67683,999,2328,.57854596E-3,.50889E-3,0
